<?xml version="1.0" encoding="UTF-8"?>
<ndm xmlns:xsi="http://www.w3.org/2001/XMLSchema-instance" xsi:noNamespaceSchemaLocation="https://sanaregistry.org/r/ndmxml_unqualified/ndmxml-2.0.0-master-2.0.xsd">
<omm id="CCSDS_OMM_VERS" version="2.0">
<header><CREATION_DATE/><ORIGINATOR/></header><body><segment><metadata><OBJECT_NAME>EUTELSAT 7A</OBJECT_NAME><OBJECT_ID>2004-008A</OBJECT_ID><CENTER_NAME>EARTH</CENTER_NAME><REF_FRAME>TEME</REF_FRAME><TIME_SYSTEM>UTC</TIME_SYSTEM><MEAN_ELEMENT_THEORY>SGP4</MEAN_ELEMENT_THEORY></metadata><data><meanElements><EPOCH>2025-10-25T11:15:50.721120</EPOCH><MEAN_MOTION>1.00271086</MEAN_MOTION><ECCENTRICITY>.000077</ECCENTRICITY><INCLINATION>5.2311</INCLINATION><RA_OF_ASC_NODE>74.7978</RA_OF_ASC_NODE><ARG_OF_PERICENTER>119.9885</ARG_OF_PERICENTER><MEAN_ANOMALY>229.0922</MEAN_ANOMALY></meanElements><tleParameters><EPHEMERIS_TYPE>0</EPHEMERIS_TYPE><CLASSIFICATION_TYPE>U</CLASSIFICATION_TYPE><NORAD_CAT_ID>28187</NORAD_CAT_ID><ELEMENT_SET_NO>999</ELEMENT_SET_NO><REV_AT_EPOCH>7899</REV_AT_EPOCH><BSTAR>0</BSTAR><MEAN_MOTION_DOT>.117E-5</MEAN_MOTION_DOT><MEAN_MOTION_DDOT>0</MEAN_MOTION_DDOT></tleParameters></data></segment></body></omm>
<omm id="CCSDS_OMM_VERS" version="2.0">
<header><CREATION_DATE/><ORIGINATOR/></header><body><segment><metadata><OBJECT_NAME>EUTELSAT 174A</OBJECT_NAME><OBJECT_ID>2005-052A</OBJECT_ID><CENTER_NAME>EARTH</CENTER_NAME><REF_FRAME>TEME</REF_FRAME><TIME_SYSTEM>UTC</TIME_SYSTEM><MEAN_ELEMENT_THEORY>SGP4</MEAN_ELEMENT_THEORY></metadata><data><meanElements><EPOCH>2025-10-25T10:42:38.729376</EPOCH><MEAN_MOTION>1.00269862</MEAN_MOTION><ECCENTRICITY>.0006124</ECCENTRICITY><INCLINATION>3.6210</INCLINATION><RA_OF_ASC_NODE>79.4224</RA_OF_ASC_NODE><ARG_OF_PERICENTER>133.5357</ARG_OF_PERICENTER><MEAN_ANOMALY>155.8576</MEAN_ANOMALY></meanElements><tleParameters><EPHEMERIS_TYPE>0</EPHEMERIS_TYPE><CLASSIFICATION_TYPE>U</CLASSIFICATION_TYPE><NORAD_CAT_ID>28924</NORAD_CAT_ID><ELEMENT_SET_NO>999</ELEMENT_SET_NO><REV_AT_EPOCH>4997</REV_AT_EPOCH><BSTAR>0</BSTAR><MEAN_MOTION_DOT>.23E-6</MEAN_MOTION_DOT><MEAN_MOTION_DDOT>0</MEAN_MOTION_DDOT></tleParameters></data></segment></body></omm>
<omm id="CCSDS_OMM_VERS" version="2.0">
<header><CREATION_DATE/><ORIGINATOR/></header><body><segment><metadata><OBJECT_NAME>EUTELSAT HOTBIRD 13B</OBJECT_NAME><OBJECT_ID>2006-032A</OBJECT_ID><CENTER_NAME>EARTH</CENTER_NAME><REF_FRAME>TEME</REF_FRAME><TIME_SYSTEM>UTC</TIME_SYSTEM><MEAN_ELEMENT_THEORY>SGP4</MEAN_ELEMENT_THEORY></metadata><data><meanElements><EPOCH>2025-10-25T11:33:42.805152</EPOCH><MEAN_MOTION>1.00274256</MEAN_MOTION><ECCENTRICITY>.0003925</ECCENTRICITY><INCLINATION>1.0506</INCLINATION><RA_OF_ASC_NODE>84.7807</RA_OF_ASC_NODE><ARG_OF_PERICENTER>122.0521</ARG_OF_PERICENTER><MEAN_ANOMALY>33.8378</MEAN_ANOMALY></meanElements><tleParameters><EPHEMERIS_TYPE>0</EPHEMERIS_TYPE><CLASSIFICATION_TYPE>U</CLASSIFICATION_TYPE><NORAD_CAT_ID>29270</NORAD_CAT_ID><ELEMENT_SET_NO>999</ELEMENT_SET_NO><REV_AT_EPOCH>4495</REV_AT_EPOCH><BSTAR>0</BSTAR><MEAN_MOTION_DOT>.169E-5</MEAN_MOTION_DOT><MEAN_MOTION_DDOT>0</MEAN_MOTION_DDOT></tleParameters></data></segment></body></omm>
<omm id="CCSDS_OMM_VERS" version="2.0">
<header><CREATION_DATE/><ORIGINATOR/></header><body><segment><metadata><OBJECT_NAME>EUTELSAT HOTBIRD 13C</OBJECT_NAME><OBJECT_ID>2008-065A</OBJECT_ID><CENTER_NAME>EARTH</CENTER_NAME><REF_FRAME>TEME</REF_FRAME><TIME_SYSTEM>UTC</TIME_SYSTEM><MEAN_ELEMENT_THEORY>SGP4</MEAN_ELEMENT_THEORY></metadata><data><meanElements><EPOCH>2025-10-25T09:37:53.906304</EPOCH><MEAN_MOTION>1.00272278</MEAN_MOTION><ECCENTRICITY>.0005917</ECCENTRICITY><INCLINATION>2.3426</INCLINATION><RA_OF_ASC_NODE>81.9547</RA_OF_ASC_NODE><ARG_OF_PERICENTER>151.0709</ARG_OF_PERICENTER><MEAN_ANOMALY>293.0265</MEAN_ANOMALY></meanElements><tleParameters><EPHEMERIS_TYPE>0</EPHEMERIS_TYPE><CLASSIFICATION_TYPE>U</CLASSIFICATION_TYPE><NORAD_CAT_ID>33459</NORAD_CAT_ID><ELEMENT_SET_NO>999</ELEMENT_SET_NO><REV_AT_EPOCH>4499</REV_AT_EPOCH><BSTAR>0</BSTAR><MEAN_MOTION_DOT>-.87E-6</MEAN_MOTION_DOT><MEAN_MOTION_DDOT>0</MEAN_MOTION_DDOT></tleParameters></data></segment></body></omm>
<omm id="CCSDS_OMM_VERS" version="2.0">
<header><CREATION_DATE/><ORIGINATOR/></header><body><segment><metadata><OBJECT_NAME>EUTELSAT 36B</OBJECT_NAME><OBJECT_ID>2009-065A</OBJECT_ID><CENTER_NAME>EARTH</CENTER_NAME><REF_FRAME>TEME</REF_FRAME><TIME_SYSTEM>UTC</TIME_SYSTEM><MEAN_ELEMENT_THEORY>SGP4</MEAN_ELEMENT_THEORY></metadata><data><meanElements><EPOCH>2025-10-25T11:38:42.327168</EPOCH><MEAN_MOTION>1.00270211</MEAN_MOTION><ECCENTRICITY>.0005911</ECCENTRICITY><INCLINATION>0.0505</INCLINATION><RA_OF_ASC_NODE>4.5560</RA_OF_ASC_NODE><ARG_OF_PERICENTER>210.6438</ARG_OF_PERICENTER><MEAN_ANOMALY>44.1282</MEAN_ANOMALY></meanElements><tleParameters><EPHEMERIS_TYPE>0</EPHEMERIS_TYPE><CLASSIFICATION_TYPE>U</CLASSIFICATION_TYPE><NORAD_CAT_ID>36101</NORAD_CAT_ID><ELEMENT_SET_NO>999</ELEMENT_SET_NO><REV_AT_EPOCH>5835</REV_AT_EPOCH><BSTAR>0</BSTAR><MEAN_MOTION_DOT>.125E-5</MEAN_MOTION_DOT><MEAN_MOTION_DDOT>0</MEAN_MOTION_DDOT></tleParameters></data></segment></body></omm>
<omm id="CCSDS_OMM_VERS" version="2.0">
<header><CREATION_DATE/><ORIGINATOR/></header><body><segment><metadata><OBJECT_NAME>EUTELSAT KA-SAT 9A</OBJECT_NAME><OBJECT_ID>2010-069A</OBJECT_ID><CENTER_NAME>EARTH</CENTER_NAME><REF_FRAME>TEME</REF_FRAME><TIME_SYSTEM>UTC</TIME_SYSTEM><MEAN_ELEMENT_THEORY>SGP4</MEAN_ELEMENT_THEORY></metadata><data><meanElements><EPOCH>2025-10-24T14:53:48.050592</EPOCH><MEAN_MOTION>1.00274610</MEAN_MOTION><ECCENTRICITY>.00025142</ECCENTRICITY><INCLINATION>0.0574</INCLINATION><RA_OF_ASC_NODE>321.5705</RA_OF_ASC_NODE><ARG_OF_PERICENTER>216.0831</ARG_OF_PERICENTER><MEAN_ANOMALY>88.0974</MEAN_ANOMALY></meanElements><tleParameters><EPHEMERIS_TYPE>0</EPHEMERIS_TYPE><CLASSIFICATION_TYPE>U</CLASSIFICATION_TYPE><NORAD_CAT_ID>37258</NORAD_CAT_ID><ELEMENT_SET_NO>999</ELEMENT_SET_NO><REV_AT_EPOCH>4164</REV_AT_EPOCH><BSTAR>0</BSTAR><MEAN_MOTION_DOT>.75E-6</MEAN_MOTION_DOT><MEAN_MOTION_DDOT>0</MEAN_MOTION_DDOT></tleParameters></data></segment></body></omm>
<omm id="CCSDS_OMM_VERS" version="2.0">
<header><CREATION_DATE/><ORIGINATOR/></header><body><segment><metadata><OBJECT_NAME>EUTELSAT 7 WEST A</OBJECT_NAME><OBJECT_ID>2011-051A</OBJECT_ID><CENTER_NAME>EARTH</CENTER_NAME><REF_FRAME>TEME</REF_FRAME><TIME_SYSTEM>UTC</TIME_SYSTEM><MEAN_ELEMENT_THEORY>SGP4</MEAN_ELEMENT_THEORY></metadata><data><meanElements><EPOCH>2025-10-25T09:39:08.784864</EPOCH><MEAN_MOTION>1.00272565</MEAN_MOTION><ECCENTRICITY>.0006287</ECCENTRICITY><INCLINATION>0.0947</INCLINATION><RA_OF_ASC_NODE>47.4588</RA_OF_ASC_NODE><ARG_OF_PERICENTER>159.5670</ARG_OF_PERICENTER><MEAN_ANOMALY>324.5299</MEAN_ANOMALY></meanElements><tleParameters><EPHEMERIS_TYPE>0</EPHEMERIS_TYPE><CLASSIFICATION_TYPE>U</CLASSIFICATION_TYPE><NORAD_CAT_ID>37816</NORAD_CAT_ID><ELEMENT_SET_NO>999</ELEMENT_SET_NO><REV_AT_EPOCH>5153</REV_AT_EPOCH><BSTAR>0</BSTAR><MEAN_MOTION_DOT>-.47E-6</MEAN_MOTION_DOT><MEAN_MOTION_DDOT>0</MEAN_MOTION_DDOT></tleParameters></data></segment></body></omm>
<omm id="CCSDS_OMM_VERS" version="2.0">
<header><CREATION_DATE/><ORIGINATOR/></header><body><segment><metadata><OBJECT_NAME>EUTELSAT 16A</OBJECT_NAME><OBJECT_ID>2011-057A</OBJECT_ID><CENTER_NAME>EARTH</CENTER_NAME><REF_FRAME>TEME</REF_FRAME><TIME_SYSTEM>UTC</TIME_SYSTEM><MEAN_ELEMENT_THEORY>SGP4</MEAN_ELEMENT_THEORY></metadata><data><meanElements><EPOCH>2025-10-25T06:20:35.317824</EPOCH><MEAN_MOTION>1.00270461</MEAN_MOTION><ECCENTRICITY>.0005503</ECCENTRICITY><INCLINATION>0.0654</INCLINATION><RA_OF_ASC_NODE>359.9005</RA_OF_ASC_NODE><ARG_OF_PERICENTER>214.7101</ARG_OF_PERICENTER><MEAN_ANOMALY>290.4714</MEAN_ANOMALY></meanElements><tleParameters><EPHEMERIS_TYPE>0</EPHEMERIS_TYPE><CLASSIFICATION_TYPE>U</CLASSIFICATION_TYPE><NORAD_CAT_ID>37836</NORAD_CAT_ID><ELEMENT_SET_NO>999</ELEMENT_SET_NO><REV_AT_EPOCH>497</REV_AT_EPOCH><BSTAR>0</BSTAR><MEAN_MOTION_DOT>.116E-5</MEAN_MOTION_DOT><MEAN_MOTION_DDOT>0</MEAN_MOTION_DDOT></tleParameters></data></segment></body></omm>

</ndm>
