EUTELSAT 7A             
1 28187U 04008A   25298.46933705  .00000117  00000+0  00000+0 0  9998
2 28187   5.2311  74.7978 0000770 119.9885 229.0922  1.00271086 78991
EUTELSAT 174A           
1 28924U 05052A   25298.44628159  .00000023  00000+0  00000+0 0  9995
2 28924   3.6210  79.4224 0006124 133.5357 155.8576  1.00269862 49977
EUTELSAT HOTBIRD 13B    
1 29270U 06032A   25298.48174543  .00000169  00000+0  00000+0 0  9997
2 29270   1.0506  84.7807 0003925 122.0521  33.8378  1.00274256 44951
EUTELSAT HOTBIRD 13C    
1 33459U 08065A   25298.40131836 -.00000087  00000+0  00000+0 0  9999
2 33459   2.3426  81.9547 0005917 151.0709 293.0265  1.00272278 44994
EUTELSAT 36B            
1 36101U 09065A   25298.48521212  .00000125  00000+0  00000+0 0  9998
2 36101   0.0505   4.5560 0005911 210.6438  44.1282  1.00270211 58359
EUTELSAT KA-SAT 9A      
1 37258U 10069A   25297.62069503  .00000075  00000+0  00000+0 0  9997
2 37258   0.0574 321.5705 0002514 216.0831  88.0974  1.00274610 41641
EUTELSAT 7 WEST A       
1 37816U 11051A   25298.40218501 -.00000047  00000+0  00000+0 0  9990
2 37816   0.0947  47.4588 0006287 159.5670 324.5299  1.00272565 51535
EUTELSAT 16A            
1 37836U 11057A   25298.26429766  .00000116  00000+0  00000+0 0  9995
2 37836   0.0654 359.9005 0005503 214.7101 290.4714  1.00270461  4972
